ION SCV-008             
1 55051U 23001AU  26068.82429008  .00008336  00000+0  31423-3 0  9992
2 55051  97.5676 163.6060 0015192   8.5420 351.6074 15.27226640176169
STARLINK-30271          
1 57669U 23124G   26068.64749266  .00003481  00000+0  12970-3 0  9998
2 57669  53.1609 207.2469 0001531  98.7407 261.3767 15.30174088143551
